[{"OBJECT_NAME":"STARLINK-33533","OBJECT_ID":"2025-063AA","EPOCH":"2026-03-09T08:32:07.748736","MEAN_MOTION":15.30202346,"ECCENTRICITY":0.00012983,"INCLINATION":53.1604,"RA_OF_ASC_NODE":51.5014,"ARG_OF_PERICENTER":89.4968,"MEAN_ANOMALY":270.6182,"EPHEMERIS_TYPE":0,"CLASSIFICATION_TYPE":"U","NORAD_CAT_ID":63387,"ELEMENT_SET_NO":999,"REV_AT_EPOCH":5469,"BSTAR":0.0011671202,"MEAN_MOTION_DOT":0.0003437,"MEAN_MOTION_DDOT":0},{"OBJECT_NAME":"CZ-2C DEB","OBJECT_ID":"2018-056F","EPOCH":"2026-03-09T10:57:26.102304","MEAN_MOTION":15.27739248,"ECCENTRICITY":0.00119172,"INCLINATION":98.1188,"RA_OF_ASC_NODE":250.032,"ARG_OF_PERICENTER":4.6998,"MEAN_ANOMALY":355.4349,"EPHEMERIS_TYPE":0,"CLASSIFICATION_TYPE":"U","NORAD_CAT_ID":43534,"ELEMENT_SET_NO":999,"REV_AT_EPOCH":41855,"BSTAR":0.00085537155,"MEAN_MOTION_DOT":0.00023193,"MEAN_MOTION_DDOT":0}]
